H1 CPF 01  gfz 2022 02 01 01  5321 tandemx   
H2 1003001  6202 36605    2022 02 01 00 59 42 2022 02 06 00 00 42   120 1 1  0 0 0
H9
10 0 59613  62622.000000  0    5659752.786    423222.581   3895529.328
10 0 59613  62742.000000  0    5114047.012    194003.047   4601980.233
10 0 59613  62862.000000  0    4475026.867    -28240.036   5227442.469
10 0 59613  62982.000000  0    3754057.941   -238089.886   5760943.217
10 0 59613  63102.000000  0    2964019.822   -430561.444   6193136.422
10 0 59613  63222.000000  0    2119069.005   -601211.722   6516460.703
10 0 59613  63342.000000  0    1234380.793   -746236.429   6725266.133
10 0 59613  63462.000000  0     325873.008   -862550.881   6815908.183
10 0 59613  63582.000000  0    -590081.821   -947853.057   6786806.089
10 0 59613  63702.000000  0   -1496950.560  -1000668.632   6638467.760
10 0 59613  63822.000000  0   -2378336.346  -1020376.434   6373480.836
10 0 59613  63942.000000  0   -3218273.127  -1007214.041   5996470.613
10 0 59613  64062.000000  0   -4001516.107   -962263.831   5514026.337
10 0 59613  64182.000000  0   -4713823.338   -887420.629   4934592.850
10 0 59613  64302.000000  0   -5342221.834   -785340.291   4268328.175
10 0 59613  64422.000000  0   -5875252.123   -659370.201   3526928.983
10 0 59613  64542.000000  0   -6303185.711   -513463.126   2723427.475
10 0 59613  64662.000000  0   -6618213.037   -352076.270   1871963.340
10 0 59613  64782.000000  0   -6814596.538   -180057.494    987531.151
10 0 59613  64902.000000  0   -6888782.088     -2522.401     85709.229
10 0 59613  65022.000000  0   -6839466.725    175275.447   -817623.341
10 0 59613  65142.000000  0   -6667620.413    348077.909  -1706575.680
10 0 59613  65262.000000  0   -6376461.859    510754.950  -2565531.720
10 0 59613  65382.000000  0   -5971392.188    658433.917  -3379431.166
10 0 59613  65502.000000  0   -5459882.652    786622.345  -4134038.837
10 0 59613  65622.000000  0   -4851323.327    891320.860  -4816192.734
10 0 59613  65742.000000  0   -4156837.689    969123.300  -5414029.258
10 0 59613  65862.000000  0   -3389068.197   1017302.190  -5917181.217
10 0 59613  65982.000000  0   -2561937.991   1033877.395  -6316947.110
10 0 59613  66102.000000  0   -1690394.625   1017667.547  -6606429.841
10 0 59613  66222.000000  0    -790139.107    968324.396  -6780644.806
10 0 59613  66342.000000  0     122653.317    886348.013  -6836595.079
10 0 59613  66462.000000  0    1031615.839    773083.747  -6773317.417
10 0 59613  66582.000000  0    1920476.924    630700.454  -6591899.701
10 0 59613  66702.000000  0    2773345.991    462150.410  -6295463.921
10 0 59613  66822.000000  0    3574992.798    271111.977  -5889118.054
10 0 59613  66942.000000  0    4311116.524     61914.483  -5379876.102
10 0 59613  67062.000000  0    4968601.190   -160552.562  -4776548.593
10 0 59613  67182.000000  0    5535755.469   -390944.711  -4089601.812
10 0 59613  67302.000000  0    6002528.942   -623580.930  -3330985.529
10 0 59613  67422.000000  0    6360701.011   -852572.625  -2513933.060
10 0 59613  67542.000000  0    6604038.580  -1071960.925  -1652734.867
10 0 59613  67662.000000  0    6728416.986  -1275858.205   -762488.662
10 0 59613  67782.000000  0    6731900.284  -1458590.901    141168.357
10 0 59613  67902.000000  0    6614779.294  -1614840.059   1042340.315
10 0 59613  68022.000000  0    6379564.002  -1739775.980   1925160.831
10 0 59613  68142.000000  0    6030931.778  -1829183.556   2774081.414
10 0 59613  68262.000000  0    5575630.966  -1879573.723   3574154.280
10 0 59613  68382.000000  0    5022343.114  -1888279.772   4311301.430
10 0 59613  68502.000000  0    4381508.631  -1853535.272   4972565.063
10 0 59613  68622.000000  0    3665121.526  -1774531.541   5546335.817
10 0 59613  68742.000000  0    2886495.721  -1651454.788   6022555.412
10 0 59613  68862.000000  0    2060009.430  -1485501.370   6392887.485
10 0 59613  68982.000000  0    1200834.741  -1278871.832   6650857.721
10 0 59613  69102.000000  0     324655.390  -1034742.985   6791961.400
10 0 59613  69222.000000  0    -552620.867   -757218.438   6813736.330
10 0 59613  69342.000000  0   -1415149.987   -451259.436   6715802.048
10 0 59613  69462.000000  0   -2247436.231   -122596.471   6499865.958
10 0 59613  69582.000000  0   -3034609.253    222377.310   6169695.974
10 0 59613  69702.000000  0   -3762690.543    576728.997   5731059.956
10 0 59613  69822.000000  0   -4418845.393    933122.943   5191631.209
10 0 59613  69942.000000  0   -4991615.026   1283970.095   4560860.316
10 0 59613  70062.000000  0   -5471124.797   1621587.250   3849814.583
10 0 59613  70182.000000  0   -5849262.746   1938362.201   3070986.648
10 0 59613  70302.000000  0   -6119825.477   2226921.547   2238076.248
10 0 59613  70422.000000  0   -6278628.470   2480297.306   1365747.725
10 0 59613  70542.000000  0   -6323577.048   2692088.585    469366.289
10 0 59613  70662.000000  0   -6254694.216   2856613.182   -435280.644
10 0 59613  70782.000000  0   -6074106.103   2969045.425  -1332270.326
10 0 59613  70902.000000  0   -5785984.779   3025536.788  -2205833.730
10 0 59613  71022.000000  0   -5396449.811   3023316.676  -3040641.373
10 0 59613  71142.000000  0   -4913430.878   2960769.537  -3822077.403
10 0 59613  71262.000000  0   -4346497.016   2837487.931  -4536496.766
10 0 59613  71382.000000  0   -3706657.081   2654300.184  -5171460.419
10 0 59613  71502.000000  0   -3006137.160   2413272.678  -5715944.364
10 0 59613  71622.000000  0   -2258141.921   2117688.216  -6160521.252
10 0 59613  71742.000000  0   -1476601.884   1772000.055  -6497513.715
10 0 59613  71862.000000  0    -675913.488   1381762.750  -6721114.386
10 0 59613  71982.000000  0     129322.430    953542.202  -6827475.641
10 0 59613  72102.000000  0     924560.242    494806.567  -6814768.305
10 0 59613  72222.000000  0    1695566.613     13798.728  -6683211.796
10 0 59613  72342.000000  0    2428670.057   -480608.685  -6435069.585
10 0 59613  72462.000000  0    3110998.213   -979072.402  -6074614.847
10 0 59613  72582.000000  0    3730701.625  -1471950.280  -5608063.882
10 0 59613  72702.000000  0    4277159.598  -1949483.084  -5043480.061
10 0 59613  72822.000000  0    4741166.862  -2401985.732  -4390645.909
10 0 59613  72942.000000  0    5115094.926  -2820042.309  -3660903.917
10 0 59613  73062.000000  0    5393026.097  -3194701.249  -2866968.628
10 0 59613  73182.000000  0    5570857.142  -3517666.724  -2022710.647
10 0 59613  73302.000000  0    5646368.011  -3781481.396  -1142916.104
10 0 59613  73422.000000  0    5619254.368  -3979696.730   -243026.306
10 0 59613  73542.000000  0    5491122.073  -4107025.478    661138.296
10 0 59613  73662.000000  0    5265442.853  -4159473.159   1553664.047
10 0 59613  73782.000000  0    4947471.298  -4134443.475   2418833.821
10 0 59613  73902.000000  0    4544125.658  -4030813.799   3241412.242
10 0 59613  74022.000000  0    4063836.948  -3848981.177   4006920.302
10 0 59613  74142.000000  0    3516369.794  -3590877.971   4701895.360
10 0 59613  74262.000000  0    2912617.555  -3259955.164   5314130.160
10 0 59613  74382.000000  0    2264380.365  -2861134.594   5832885.631
10 0 59613  74502.000000  0    1584129.288  -2400732.050   6249075.934
10 0 59613  74622.000000  0     884762.386  -1886353.452   6555421.397
10 0 59613  74742.000000  0     179358.075  -1326766.128   6746569.709
10 0 59613  74862.000000  0    -519069.813   -731747.208   6819183.766
10 0 59613  74982.000000  0   -1197811.132   -111911.754   6771995.619
10 0 59613  75102.000000  0   -1844689.612    521476.183   6605827.201
10 0 59613  75222.000000  0   -2448280.504   1156707.574   6323577.008
10 0 59613  75342.000000  0   -2998112.653   1781843.788   5930172.893
10 0 59613  75462.000000  0   -3484851.819   2384940.371   5432491.935
10 0 59613  75582.000000  0   -3900463.252   2954276.447   4839247.005
10 0 59613  75702.000000  0   -4238349.280   3478584.740   4160839.642
10 0 59613  75822.000000  0   -4493459.910   3947277.701   3409182.290
10 0 59613  75942.000000  0   -4662373.379   4350665.207   2597491.014
10 0 59613  76062.000000  0   -4743343.528   4680159.459   1740052.286
10 0 59613  76182.000000  0   -4736313.191   4928460.792    851967.113
10 0 59613  76302.000000  0   -4642893.784   5089718.383    -51121.280
10 0 59613  76422.000000  0   -4466311.992   5159664.377   -953310.765
10 0 59613  76542.000000  0   -4211322.071   5135716.568  -1838731.595
10 0 59613  76662.000000  0   -3884085.518   5017044.635  -2691833.597
10 0 59613  76782.000000  0   -3492025.918   4804601.997  -3497666.102
10 0 59613  76902.000000  0   -3043658.965   4501119.623  -4242142.835
10 0 59613  77022.000000  0   -2548405.004   4111065.147  -4912285.842
10 0 59613  77142.000000  0   -2016389.152   3640569.982  -5496445.142
10 0 59613  77262.000000  0   -1458233.653   3097326.329  -5984493.532
10 0 59613  77382.000000  0    -884845.499   2490454.304  -6367992.764
10 0 59613  77502.000000  0    -307204.557   1830343.715  -6640327.679
10 0 59613  77622.000000  0     263843.062   1128474.863  -6796809.087
10 0 59613  77742.000000  0     817783.429    397220.589  -6834746.388
10 0 59613  77862.000000  0    1344624.500   -350367.921  -6753489.584
10 0 59613  77982.000000  0    1835072.037  -1100789.502  -6554437.696
10 0 59613  78102.000000  0    2280689.404  -1840330.297  -6241016.923
10 0 59613  78222.000000  0    2674040.957  -2555308.054  -5818628.218
10 0 59613  78342.000000  0    3008816.360  -3232321.297  -5294565.538
10 0 59613  78462.000000  0    3279934.989  -3858501.505  -4677900.652
10 0 59613  78582.000000  0    3483625.119  -4421758.737  -3979334.864
10 0 59613  78702.000000  0    3617478.401  -4911017.807  -3211024.007
10 0 59613  78822.000000  0    3680479.907  -5316442.948  -2386375.682
10 0 59613  78942.000000  0    3673009.722  -5629644.164  -1519818.414
10 0 59613  79062.000000  0    3596816.400  -5843857.625   -626548.947
99
